start=new Date('2022-02-27T00:00:00.000Z').valueOf();
sats=[{"ECCENTRICITY":"0.00016230","NORAD_CAT_ID":"50819","FILE":"3327391","OBJECT_ID":"2022-001S","APOAPSIS":"355.827","GP_ID":"197162592","TIME_SYSTEM":"UTC","BSTAR":"-0.00598510000000","PERIOD":"91.635","INCLINATION":"53.2176","MEAN_ANOMALY":"247.9498","PERIAPSIS":"353.642","OBJECT_TYPE":"PAYLOAD","RA_OF_ASC_NODE":"306.5832","DECAY_DATE":null,"SITE":"AFETR","SEMIMAJOR_AXIS":"6732.870","ELEMENT_SET_NO":"999","MEAN_MOTION_DOT":"-0.00717077","OBJECT_NAME":"STARLINK-3327","EPOCH":"2022-02-26T22:00:00.999936","TLE_LINE2":"2 50819  53.2176 306.5832 0001623  37.4572 247.9498 15.71456843  3703","MEAN_MOTION":"15.71456843","REF_FRAME":"TEME","MEAN_MOTION_DDOT":"0.0000000000000","CENTER_NAME":"EARTH","CLASSIFICATION_TYPE":"U","COUNTRY_CODE":"US","MEAN_ELEMENT_THEORY":"SGP4","REV_AT_EPOCH":"370","RCS_SIZE":"LARGE","ARG_OF_PERICENTER":"37.4572","LAUNCH_DATE":"2022-01-06","EPHEMERIS_TYPE":"0","TLE_LINE1":"1 50819U 22001S   22057.91667824 -.00717077  00000-0 -59851-2 0  9998"},{"TLE_LINE2":"2 50820  53.2175 306.5752 0001848  31.3080 246.5784 15.69719120  3701","EPOCH":"2022-02-26T22:00:00.999936","MEAN_MOTION":"15.69719120","COUNTRY_CODE":"US","CLASSIFICATION_TYPE":"U","MEAN_MOTION_DDOT":"0.0000000000000","CENTER_NAME":"EARTH","REF_FRAME":"TEME","RCS_SIZE":"LARGE","REV_AT_EPOCH":"370","MEAN_ELEMENT_THEORY":"SGP4","ARG_OF_PERICENTER":"31.3080","LAUNCH_DATE":"2022-01-06","EPHEMERIS_TYPE":"0","TLE_LINE1":"1 50820U 22001T   22057.91667824 -.00716257  00000-0 -64312-2 0  9997","NORAD_CAT_ID":"50820","ECCENTRICITY":"0.00018480","APOAPSIS":"360.948","FILE":"3327391","OBJECT_ID":"2022-001T","TIME_SYSTEM":"UTC","GP_ID":"197160844","BSTAR":"-0.00643120000000","PERIAPSIS":"358.458","MEAN_ANOMALY":"246.5784","PERIOD":"91.736","INCLINATION":"53.2175","DECAY_DATE":null,"RA_OF_ASC_NODE":"306.5752","OBJECT_TYPE":"PAYLOAD","SEMIMAJOR_AXIS":"6737.838","ELEMENT_SET_NO":"999","MEAN_MOTION_DOT":"-0.00716257","OBJECT_NAME":"STARLINK-3339","SITE":"AFETR"},{"CLASSIFICATION_TYPE":"U","MEAN_MOTION_DDOT":"0.0000000000000","CENTER_NAME":"EARTH","REF_FRAME":"TEME","COUNTRY_CODE":"US","MEAN_MOTION":"15.70230542","TLE_LINE2":"2 50821  53.2175 306.5721 0001671  35.3401 248.9904 15.70230542  3701","EPOCH":"2022-02-26T22:00:00.999936","TLE_LINE1":"1 50821U 22001U   22057.91667824 -.00716566  00000-0 -62982-2 0  9992","EPHEMERIS_TYPE":"0","ARG_OF_PERICENTER":"35.3401","LAUNCH_DATE":"2022-01-06","MEAN_ELEMENT_THEORY":"SGP4","RCS_SIZE":"LARGE","REV_AT_EPOCH":"370","GP_ID":"197161094","TIME_SYSTEM":"UTC","APOAPSIS":"359.365","FILE":"3327391","OBJECT_ID":"2022-001U","ECCENTRICITY":"0.00016710","NORAD_CAT_ID":"50821","SEMIMAJOR_AXIS":"6736.375","MEAN_MOTION_DOT":"-0.00716566","OBJECT_NAME":"STARLINK-3346","ELEMENT_SET_NO":"999","SITE":"AFETR","RA_OF_ASC_NODE":"306.5721","OBJECT_TYPE":"PAYLOAD","DECAY_DATE":null,"INCLINATION":"53.2175","PERIOD":"91.706","PERIAPSIS":"357.114","MEAN_ANOMALY":"248.9904","BSTAR":"-0.00629820000000"},{"EPHEMERIS_TYPE":"0","TLE_LINE1":"1 50822U 22001V   22057.91667824 -.00716374  00000-0 -63642-2 0  9994","MEAN_ELEMENT_THEORY":"SGP4","REV_AT_EPOCH":"370","RCS_SIZE":"LARGE","ARG_OF_PERICENTER":"35.7189","LAUNCH_DATE":"2022-01-06","MEAN_MOTION":"15.69974783","REF_FRAME":"TEME","MEAN_MOTION_DDOT":"0.0000000000000","CENTER_NAME":"EARTH","CLASSIFICATION_TYPE":"U","COUNTRY_CODE":"US","EPOCH":"2022-02-26T22:00:00.999936","TLE_LINE2":"2 50822  53.2175 306.5738 0001705  35.7189 245.4664 15.69974783  3700","OBJECT_TYPE":"PAYLOAD","RA_OF_ASC_NODE":"306.5738","DECAY_DATE":null,"SITE":"AFETR","OBJECT_NAME":"STARLINK-3343","SEMIMAJOR_AXIS":"6737.106","MEAN_MOTION_DOT":"-0.00716374","ELEMENT_SET_NO":"999","BSTAR":"-0.00636420000000","INCLINATION":"53.2175","PERIOD":"91.721","MEAN_ANOMALY":"245.4664","PERIAPSIS":"357.822","GP_ID":"197162346","TIME_SYSTEM":"UTC","NORAD_CAT_ID":"50822","ECCENTRICITY":"0.00017050","OBJECT_ID":"2022-001V","FILE":"3327391","APOAPSIS":"360.120"},{"INCLINATION":"53.2175","PERIOD":"91.650","MEAN_ANOMALY":"255.4774","PERIAPSIS":"354.133","BSTAR":"-0.00604960000000","SITE":"AFETR","MEAN_MOTION_DOT":"-0.00717078","SEMIMAJOR_AXIS":"6733.600","OBJECT_NAME":"STARLINK-3334","ELEMENT_SET_NO":"999","OBJECT_TYPE":"PAYLOAD","RA_OF_ASC_NODE":"306.5862","DECAY_DATE":null,"OBJECT_ID":"2022-001W","FILE":"3326863","APOAPSIS":"356.797","ECCENTRICITY":"0.00019780","NORAD_CAT_ID":"50823","GP_ID":"197126442","TIME_SYSTEM":"UTC","ARG_OF_PERICENTER":"27.5212","LAUNCH_DATE":"2022-01-06","MEAN_ELEMENT_THEORY":"SGP4","REV_AT_EPOCH":"934","RCS_SIZE":"LARGE","TLE_LINE1":"1 50823U 22001W   22057.91667824 -.00717078  00000-0 -60496-2 0  9991","EPHEMERIS_TYPE":"0","EPOCH":"2022-02-26T22:00:00.999936","TLE_LINE2":"2 50823  53.2175 306.5862 0001978  27.5212 255.4774 15.71201157  9347","REF_FRAME":"TEME","CLASSIFICATION_TYPE":"U","MEAN_MOTION_DDOT":"0.0000000000000","CENTER_NAME":"EARTH","COUNTRY_CODE":"US","MEAN_MOTION":"15.71201157"},{"REF_FRAME":"TEME","MEAN_MOTION_DDOT":"0.0000000000000","CENTER_NAME":"EARTH","CLASSIFICATION_TYPE":"U","COUNTRY_CODE":"US","MEAN_MOTION":"15.70102629","EPOCH":"2022-02-26T22:00:00.999936","TLE_LINE2":"2 50824  53.2175 306.5730 0001701  34.9088 247.8684 15.70102629  3701","TLE_LINE1":"1 50824U 22001X   22057.91667824 -.00716458  00000-0 -63310-2 0  9991","EPHEMERIS_TYPE":"0","LAUNCH_DATE":"2022-01-06","ARG_OF_PERICENTER":"34.9088","MEAN_ELEMENT_THEORY":"SGP4","REV_AT_EPOCH":"370","RCS_SIZE":"LARGE","GP_ID":"197161345","TIME_SYSTEM":"UTC","OBJECT_ID":"2022-001X","FILE":"3327391","APOAPSIS":"359.751","NORAD_CAT_ID":"50824","ECCENTRICITY":"0.00017010","SITE":"AFETR","SEMIMAJOR_AXIS":"6736.740","ELEMENT_SET_NO":"999","MEAN_MOTION_DOT":"-0.00716458","OBJECT_NAME":"STARLINK-3340","OBJECT_TYPE":"PAYLOAD","RA_OF_ASC_NODE":"306.5730","DECAY_DATE":null,"PERIOD":"91.714","INCLINATION":"53.2175","MEAN_ANOMALY":"247.8684","PERIAPSIS":"357.460","BSTAR":"-0.00633100000000"},{"GP_ID":"197161595","TIME_SYSTEM":"UTC","NORAD_CAT_ID":"50825","ECCENTRICITY":"0.00017830","FILE":"3327391","OBJECT_ID":"2022-001Y","APOAPSIS":"360.538","OBJECT_TYPE":"PAYLOAD","RA_OF_ASC_NODE":"306.5746","DECAY_DATE":null,"SITE":"AFETR","MEAN_MOTION_DOT":"-0.00716292","SEMIMAJOR_AXIS":"6737.472","ELEMENT_SET_NO":"999","OBJECT_NAME":"STARLINK-3332","BSTAR":"-0.00639740000000","PERIOD":"91.729","INCLINATION":"53.2175","MEAN_ANOMALY":"246.3453","PERIAPSIS":"358.136","MEAN_MOTION":"15.69846921","REF_FRAME":"TEME","MEAN_MOTION_DDOT":"0.0000000000000","CLASSIFICATION_TYPE":"U","CENTER_NAME":"EARTH","COUNTRY_CODE":"US","EPOCH":"2022-02-26T22:00:00.999936","TLE_LINE2":"2 50825  53.2175 306.5746 0001783  33.2098 246.3453 15.69846921  3708","EPHEMERIS_TYPE":"0","TLE_LINE1":"1 50825U 22001Y   22057.91667824 -.00716292  00000-0 -63974-2 0  9994","MEAN_ELEMENT_THEORY":"SGP4","REV_AT_EPOCH":"370","RCS_SIZE":"LARGE","ARG_OF_PERICENTER":"33.2098","LAUNCH_DATE":"2022-01-06"},{"TLE_LINE2":"2 50826  53.2175 306.5689 0001702  34.2823 254.4781 15.70614164  3701","EPOCH":"2022-02-26T22:00:00.999936","MEAN_MOTION_DDOT":"0.0000000000000","CENTER_NAME":"EARTH","CLASSIFICATION_TYPE":"U","REF_FRAME":"TEME","COUNTRY_CODE":"US","MEAN_MOTION":"15.70614164","LAUNCH_DATE":"2022-01-06","ARG_OF_PERICENTER":"34.2823","MEAN_ELEMENT_THEORY":"SGP4","RCS_SIZE":"LARGE","REV_AT_EPOCH":"370","TLE_LINE1":"1 50826U 22001Z   22057.91667824 -.00716980  00000-0 -62012-2 0  9991","EPHEMERIS_TYPE":"0","APOAPSIS":"358.289","FILE":"3327391","OBJECT_ID":"2022-001Z","NORAD_CAT_ID":"50826","ECCENTRICITY":"0.00017020","GP_ID":"197161846","TIME_SYSTEM":"UTC","INCLINATION":"53.2175","PERIOD":"91.684","PERIAPSIS":"355.996","MEAN_ANOMALY":"254.4781","BSTAR":"-0.00620120000000","SEMIMAJOR_AXIS":"6735.278","MEAN_MOTION_DOT":"-0.00716980","ELEMENT_SET_NO":"999","OBJECT_NAME":"STARLINK-3337","SITE":"AFETR","RA_OF_ASC_NODE":"306.5689","OBJECT_TYPE":"PAYLOAD","DECAY_DATE":null},{"APOAPSIS":"361.529","OBJECT_ID":"2022-001AA","FILE":"3327391","ECCENTRICITY":"0.00016240","NORAD_CAT_ID":"50827","GP_ID":"197162593","TIME_SYSTEM":"UTC","PERIOD":"91.751","INCLINATION":"53.2175","PERIAPSIS":"359.341","MEAN_ANOMALY":"235.9442","BSTAR":"-0.00649690000000","MEAN_MOTION_DOT":"-0.00715864","SEMIMAJOR_AXIS":"6738.570","OBJECT_NAME":"STARLINK-3329","ELEMENT_SET_NO":"999","SITE":"AFETR","RA_OF_ASC_NODE":"306.5763","OBJECT_TYPE":"PAYLOAD","DECAY_DATE":null,"TLE_LINE2":"2 50827  53.2175 306.5763 0001624  38.4898 235.9442 15.69463278  3700","EPOCH":"2022-02-26T22:00:00.999936","MEAN_MOTION_DDOT":"0.0000000000000","CLASSIFICATION_TYPE":"U","CENTER_NAME":"EARTH","REF_FRAME":"TEME","COUNTRY_CODE":"US","MEAN_MOTION":"15.69463278","LAUNCH_DATE":"2022-01-06","ARG_OF_PERICENTER":"38.4898","MEAN_ELEMENT_THEORY":"SGP4","RCS_SIZE":"LARGE","REV_AT_EPOCH":"370","TLE_LINE1":"1 50827U 22001AA  22057.91667824 -.00715864  00000-0 -64969-2 0  9995","EPHEMERIS_TYPE":"0"},{"TLE_LINE1":"1 50828U 22001AB  22057.91667824 -.00716089  00000-0 -64853-2 0  9998","EPHEMERIS_TYPE":"0","LAUNCH_DATE":"2022-01-06","ARG_OF_PERICENTER":"40.4235","MEAN_ELEMENT_THEORY":"SGP4","RCS_SIZE":"LARGE","REV_AT_EPOCH":"370","MEAN_MOTION_DDOT":"0.0000000000000","CENTER_NAME":"EARTH","CLASSIFICATION_TYPE":"U","REF_FRAME":"TEME","COUNTRY_CODE":"US","MEAN_MOTION":"15.69514797","TLE_LINE2":"2 50828  53.2175 306.5630 0001561  40.4235 241.4849 15.69514797  3708","EPOCH":"2022-02-26T22:00:00.999936","SEMIMAJOR_AXIS":"6738.422","ELEMENT_SET_NO":"999","MEAN_MOTION_DOT":"-0.00716089","OBJECT_NAME":"STARLINK-3290","SITE":"AFETR","RA_OF_ASC_NODE":"306.5630","OBJECT_TYPE":"PAYLOAD","DECAY_DATE":null,"PERIOD":"91.748","INCLINATION":"53.2175","PERIAPSIS":"359.236","MEAN_ANOMALY":"241.4849","BSTAR":"-0.00648530000000","GP_ID":"197160845","TIME_SYSTEM":"UTC","APOAPSIS":"361.339","FILE":"3327391","OBJECT_ID":"2022-001AB","NORAD_CAT_ID":"50828","ECCENTRICITY":"0.00015610"}];
